{"fetched_at":"2026-03-30T06:02:59Z","count":15439,"tles":[{"name":"STARLINK-5280","line1":"1 54166U 22141K   26087.81898593 -.00000621  00000+0 -20935-4 0  9999","line2":"2 54166  53.2171 278.3752 0001339  85.4474 274.6671 15.08838771188744","category":"Starlink"}]}