{
  "norad_id": 54166,
  "name": "STARLINK-5280",
  "history": [
    {
      "epoch": "2026-03-28T19:39:20.384352",
      "apogee_km": 540.6735193939121,
      "perigee_km": 538.8207716620573,
      "latitude_deg": 51.702953531857965,
      "longitude_deg": 35.22264927998185,
      "semi_major_axis_km": 6917.884145527984,
      "eccentricity": 0.00013391,
      "inclination_deg": 53.2171,
      "raan_deg": 278.3752,
      "arg_perigee_deg": 85.4474,
      "mean_anomaly_deg": 274.6671,
      "mean_motion_rev_day": 15.08838771
    }
  ]
}